EUTELSAT 7A             
1 28187U 04008A   25197.44958936  .00000109  00000+0  00000+0 0  9998
2 28187   4.9729  76.0441 0001531  64.8277 176.2813  1.00271601 77982
EUTELSAT 174A           
1 28924U 05052A   25197.53100375  .00000015  00000+0  00000+0 0  9999
2 28924   3.3647  80.7385 0006099  37.2702 181.7140  1.00271043 48963
EUTELSAT HOTBIRD 13E    
1 28946U 06007B   25197.56128795 -.00000117  00000+0  00000+0 0  9997
2 28946   1.2011  89.7081 0005986 185.9946 237.7198  0.98117669 70954
EUTELSAT HOTBIRD 13B    
1 29270U 06032A   25197.56458130  .00000163  00000+0  00000+0 0  9995
2 29270   0.7908  86.0179 0003706  31.6443  53.3042  1.00271369 43940
EUTELSAT HOTBIRD 13C    
1 33459U 08065A   25197.41272471 -.00000094  00000+0  00000+0 0  9997
2 33459   2.0830  83.2357 0003253  38.3602 308.9519  1.00270613 43970
EUTELSAT 36B            
1 36101U 09065A   25197.56804797  .00000120  00000+0  00000+0 0  9992
2 36101   0.0558 336.5808 0005572 141.5725  71.4808  1.00272261 57346
EUTELSAT KA-SAT 9A      
1 37258U 10069A   25197.55981461  .00000069  00000+0  00000+0 0  9997
2 37258   0.0620 303.1039 0003726 189.4112  12.6394  1.00271075 40640
EUTELSAT 7 WEST A       
1 37816U 11051A   25197.40735685 -.00000053  00000+0  00000+0 0  9992
2 37816   0.0657 336.4201 0004738 157.4511 299.9488  1.00270735 50537
